[
    {
        "Altitude(m)": 707139.8370592478,
        "Argument of Periapsis(deg)": 0.0011390121186627068,
        "Eccentricity": 0.0,
        "Inclination(deg)": 45.0,
        "Latitude(deg)": 44.39872795186524,
        "Longitude(deg)": 133.0530967008275,
        "Mean Anomaly(deg)": 99.33512166474806,
        "RAAN(deg)": 129.9989248058542,
        "Satellite Name": "Constellation 1 578",
        "Satellite Number": 578,
        "Semi-Major Axis(m)": 7083131.272910544,
        "Time(s)": 19
    },
    {
        "Altitude(m)": 707137.6396415766,
        "Argument of Periapsis(deg)": 0.0011989601249081123,
        "Eccentricity": 0.0,
        "Inclination(deg)": 45.0,
        "Latitude(deg)": 44.38894571456506,
        "Longitude(deg)": 133.13265792854725,
        "Mean Anomaly(deg)": 99.39582280499798,
        "RAAN(deg)": 129.9988682166886,
        "Satellite Name": "Constellation 1 578",
        "Satellite Number": 578,
        "Semi-Major Axis(m)": 7083131.272910544,
        "Time(s)": 20
    },
    {
        "Altitude(m)": 707135.4285970299,
        "Argument of Periapsis(deg)": 0.001258908131153518,
        "Eccentricity": 0.0,
        "Inclination(deg)": 45.0,
        "Latitude(deg)": 44.37910221709019,
        "Longitude(deg)": 133.21219122159442,
        "Mean Anomaly(deg)": 99.45652394524791,
        "RAAN(deg)": 129.99881162752303,
        "Satellite Name": "Constellation 1 578",
        "Satellite Number": 578,
        "Semi-Major Axis(m)": 7083131.272910544,
        "Time(s)": 21
    },
    {
        "Altitude(m)": 707133.2039386271,
        "Argument of Periapsis(deg)": 0.0013188561373989236,
        "Eccentricity": 0.0,
        "Inclination(deg)": 45.0,
        "Latitude(deg)": 44.369197500607086,
        "Longitude(deg)": 133.2916962566425,
        "Mean Anomaly(deg)": 99.51722508549776,
        "RAAN(deg)": 129.99875503835747,
        "Satellite Name": "Constellation 1 578",
        "Satellite Number": 578,
        "Semi-Major Axis(m)": 7083131.272910544,
        "Time(s)": 22
    },
    {
        "Altitude(m)": 707130.9656794629,
        "Argument of Periapsis(deg)": 0.0013788041436443293,
        "Eccentricity": 0.0,
        "Inclination(deg)": 45.0,
        "Latitude(deg)": 44.35923160650261,
        "Longitude(deg)": 133.37117321511465,
        "Mean Anomaly(deg)": 99.57792622574767,
        "RAAN(deg)": 129.99869844919192,
        "Satellite Name": "Constellation 1 578",
        "Satellite Number": 578,
        "Semi-Major Axis(m)": 7083131.272910544,
        "Time(s)": 23
    },
    {
        "Altitude(m)": 707128.7138327266,
        "Argument of Periapsis(deg)": 0.001438752149889735,
        "Eccentricity": 0.0,
        "Inclination(deg)": 45.0,
        "Latitude(deg)": 44.34920457639386,
        "Longitude(deg)": 133.45062177452263,
        "Mean Anomaly(deg)": 99.6386273659976,
        "RAAN(deg)": 129.99864186002634,
        "Satellite Name": "Constellation 1 578",
        "Satellite Number": 578,
        "Semi-Major Axis(m)": 7083131.272910544,
        "Time(s)": 24
    },
    {
        "Altitude(m)": 707126.4484116671,
        "Argument of Periapsis(deg)": 0.0014987001561351404,
        "Eccentricity": 0.0,
        "Inclination(deg)": 45.0,
        "Latitude(deg)": 44.33911645208892,
        "Longitude(deg)": 133.530041781172,
        "Mean Anomaly(deg)": 99.6993285062475,
        "RAAN(deg)": 129.9985852708608,
        "Satellite Name": "Constellation 1 578",
        "Satellite Number": 578,
        "Semi-Major Axis(m)": 7083131.272910544,
        "Time(s)": 25
    },
    {
        "Altitude(m)": 707124.1694296338,
        "Argument of Periapsis(deg)": 0.001558648162380546,
        "Eccentricity": 0.0,
        "Inclination(deg)": 45.0,
        "Latitude(deg)": 44.328967275642526,
        "Longitude(deg)": 133.6094330815975,
        "Mean Anomaly(deg)": 99.76002964649734,
        "RAAN(deg)": 129.99852868169518,
        "Satellite Name": "Constellation 1 578",
        "Satellite Number": 578,
        "Semi-Major Axis(m)": 7083131.272910544,
        "Time(s)": 26
    },
    {
        "Altitude(m)": 707121.8769000464,
        "Argument of Periapsis(deg)": 0.0016185961686259519,
        "Eccentricity": 0.0,
        "Inclination(deg)": 45.0,
        "Latitude(deg)": 44.31875708931801,
        "Longitude(deg)": 133.6887955228764,
        "Mean Anomaly(deg)": 99.82073078674723,
        "RAAN(deg)": 129.99847209252962,
        "Satellite Name": "Constellation 1 578",
        "Satellite Number": 578,
        "Semi-Major Axis(m)": 7083131.272910544,
        "Time(s)": 27
    },
    {
        "Altitude(m)": 707119.5708364086,
        "Argument of Periapsis(deg)": 0.0016785441748713573,
        "Eccentricity": 0.0,
        "Inclination(deg)": 45.0,
        "Latitude(deg)": 44.30848593559558,
        "Longitude(deg)": 133.76812895255307,
        "Mean Anomaly(deg)": 99.8814319269972,
        "RAAN(deg)": 129.99841550336404,
        "Satellite Name": "Constellation 1 578",
        "Satellite Number": 578,
        "Semi-Major Axis(m)": 7083131.272910544,
        "Time(s)": 28
    },
    {
        "Altitude(m)": 707117.2512522996,
        "Argument of Periapsis(deg)": 0.001738492181116763,
        "Eccentricity": 0.0,
        "Inclination(deg)": 45.0,
        "Latitude(deg)": 44.29815385717182,
        "Longitude(deg)": 133.84743321864016,
        "Mean Anomaly(deg)": 99.94213306724708,
        "RAAN(deg)": 129.9983589141985,
        "Satellite Name": "Constellation 1 578",
        "Satellite Number": 578,
        "Semi-Major Axis(m)": 7083131.272910544,
        "Time(s)": 29
    },
    {
        "Altitude(m)": 707114.918161384,
        "Argument of Periapsis(deg)": 0.0017984401873621684,
        "Eccentricity": 0.0,
        "Inclination(deg)": 45.0,
        "Latitude(deg)": 44.287760896958886,
        "Longitude(deg)": 133.92670800152388,
        "Mean Anomaly(deg)": 100.00283420749697,
        "RAAN(deg)": 129.99830232503294,
        "Satellite Name": "Constellation 1 578",
        "Satellite Number": 578,
        "Semi-Major Axis(m)": 7083131.272910544,
        "Time(s)": 30
    },
    {
        "Altitude(m)": 707112.5715774081,
        "Argument of Periapsis(deg)": 0.0018583881936075745,
        "Eccentricity": 0.0,
        "Inclination(deg)": 45.0,
        "Latitude(deg)": 44.27730709808295,
        "Longitude(deg)": 134.00595348635463,
        "Mean Anomaly(deg)": 100.06353534774689,
        "RAAN(deg)": 129.99824573586733,
        "Satellite Name": "Constellation 1 578",
        "Satellite Number": 578,
        "Semi-Major Axis(m)": 7083131.272910544,
        "Time(s)": 31
    },
    {
        "Altitude(m)": 707110.2115141903,
        "Argument of Periapsis(deg)": 0.0019183361998529795,
        "Eccentricity": 0.0,
        "Inclination(deg)": 45.0,
        "Latitude(deg)": 44.2667925038846,
        "Longitude(deg)": 134.0851693544647,
        "Mean Anomaly(deg)": 100.12423648799677,
        "RAAN(deg)": 129.99818914670178,
        "Satellite Name": "Constellation 1 578",
        "Satellite Number": 578,
        "Semi-Major Axis(m)": 7083131.272910544,
        "Time(s)": 32
    },
    {
        "Altitude(m)": 707107.8379856413,
        "Argument of Periapsis(deg)": 0.0019782842060983856,
        "Eccentricity": 0.0,
        "Inclination(deg)": 45.0,
        "Latitude(deg)": 44.256217157917185,
        "Longitude(deg)": 134.16435545576016,
        "Mean Anomaly(deg)": 100.18493762824666,
        "RAAN(deg)": 129.99813255753622,
        "Satellite Name": "Constellation 1 578",
        "Satellite Number": 578,
        "Semi-Major Axis(m)": 7083131.272910544,
        "Time(s)": 33
    },
    {
        "Altitude(m)": 707105.4510057345,
        "Argument of Periapsis(deg)": 0.0020382322123437906,
        "Eccentricity": 0.0,
        "Inclination(deg)": 45.0,
        "Latitude(deg)": 44.24558110394629,
        "Longitude(deg)": 134.24351164062426,
        "Mean Anomaly(deg)": 100.24563876849656,
        "RAAN(deg)": 129.99807596837064,
        "Satellite Name": "Constellation 1 578",
        "Satellite Number": 578,
        "Semi-Major Axis(m)": 7083131.272910544,
        "Time(s)": 34
    },
    {
        "Altitude(m)": 707103.0505885428,
        "Argument of Periapsis(deg)": 0.002098180218589197,
        "Eccentricity": 0.0,
        "Inclination(deg)": 45.0,
        "Latitude(deg)": 44.23488438594886,
        "Longitude(deg)": 134.32263775991953,
        "Mean Anomaly(deg)": 100.30633990874647,
        "RAAN(deg)": 129.9980193792051,
        "Satellite Name": "Constellation 1 578",
        "Satellite Number": 578,
        "Semi-Major Axis(m)": 7083131.272910544,
        "Time(s)": 35
    },
    {
        "Altitude(m)": 707100.6367482067,
        "Argument of Periapsis(deg)": 0.002158128224834602,
        "Eccentricity": 0.0,
        "Inclination(deg)": 45.0,
        "Latitude(deg)": 44.22412704811229,
        "Longitude(deg)": 134.40173366499002,
        "Mean Anomaly(deg)": 100.36704104899637,
        "RAAN(deg)": 129.99796279003948,
        "Satellite Name": "Constellation 1 578",
        "Satellite Number": 578,
        "Semi-Major Axis(m)": 7083131.272910544,
        "Time(s)": 36
    },
    {
        "Altitude(m)": 707098.2094989492,
        "Argument of Periapsis(deg)": 0.002218076231080008,
        "Eccentricity": 0.0,
        "Inclination(deg)": 45.0,
        "Latitude(deg)": 44.21330913483404,
        "Longitude(deg)": 134.48079903956489,
        "Mean Anomaly(deg)": 100.42774218924625,
        "RAAN(deg)": 129.99790620087393,
        "Satellite Name": "Constellation 1 578",
        "Satellite Number": 578,
        "Semi-Major Axis(m)": 7083131.272910544,
        "Time(s)": 37
    }
]